ASTROLINE-N3
1 64886U 25155L   26049.12127660  .00028132  00000-0  85507-3 0  9990
2 64886  97.4370  18.3600 0005365 205.8993 154.1982 15.34002299 62639
ASTROLINE-N2
1 64888U 25155N   26049.11509306  .00026992  00000-0  81877-3 0  9990
2 64888  97.4377  18.3870 0005303 199.1830 160.9214 15.34074712 62636
GEOSCAN 2 (RS92S2)
1 64890U 25155Q   26049.12204906  .00012115  00000-0  44428-3 0  9995
2 64890  97.4428  17.7008 0005781 209.6623 150.4289 15.28111422 62582
GEOSCAN-5 (RS92S5)
1 64891U 25155R   26049.16433896  .00015348  00000-0  53858-3 0  9990
2 64891  97.4428  17.9609 0004149 231.3273 128.7597 15.29507548 62604
GEOSCAN-4 (RS92S4)
1 64892U 25155S   26049.15799652  .00015324  00000-0  53622-3 0  9998
2 64892  97.4430  17.9753 0004139 232.4815 127.6050 15.29601682 62607
GEOSCAN-3 (RS92S3)
1 64893U 25155T   26049.15177381  .00017666  00000-0  59570-3 0  9997
2 64893  97.4423  18.1247 0003640 233.2841 126.8065 15.30775139 62614
INNOSAT3 (RS92S0)
1 64894U 25155U   26049.11353054  .00030546  00000-0  89597-3 0  9991
2 64894  97.4398  18.6039 0002526 219.3474 140.7586 15.35121308 62643
CSTP-4.1
1 64895U 25155V   26049.13742009  .00010021  00000-0  37966-3 0  9995
2 64895  97.4448  17.5671 0005477 225.9441 134.1347 15.27087582 62564
RSP-03
1 65732U 98067XL  26047.27951905  .10199253  12460-4  79249-3 0  9991
2 65732  51.6061 154.7117 0006246 319.9198  40.1367 16.39378610 23558
YOTSUBA-KULOVER
1 65941U 98067XN  26048.54861156  .00126617  00000-0  88498-3 0  9994
2 65941  51.6250 161.1458 0004934 320.8194  39.2447 15.73359880 20324
BOTAN
1 65942U 98067XP  26048.52453849  .00459962  92604-4  13674-2 0  9999
2 65942  51.6160 156.4110 0009065 340.4312  19.6345 15.91838464 20382
E-KAGAKU-1
1 65943U 98067XQ  26048.55011848  .00125033  00000-0  87978-3 0  9995
2 65943  51.6276 161.1693 0004936 333.6914  26.3833 15.73209211 20327
SILVERSAT
1 66909U 98067XV  26048.57639726  .00121901  00000-0  11824-2 0  9997
2 66909  51.6276 167.3464 0003330 324.3396  35.7377 15.65453016 12033
POLYTECH UNIVERSE-3 (RS46S)
1 57191U 23091AB  26049.20085494  .00005078  00000-0  25351-3 0  9990
2 57191  97.5220 107.7662 0016069 178.0736 182.0562 15.17836874145894
CSTP-1.1
1 57202U 23091AN  26049.20037394  .00005263  00000-0  26298-3 0  9996
2 57202  97.5285 108.6849 0010330 155.7895 204.3826 15.17852711145909
CSTP-1.2
1 57186U 23091W   26049.17619219  .00009588  00000-0  36537-3 0  9996
2 57186  97.5304 114.3661 0020025 150.1799 210.0585 15.26736402146288
MULE-4T
1 67286U 25313AQ  26049.17232898  .00009243  00000-0  40601-3 0  9996
2 67286  97.4048 125.8330 0011099  58.5911 301.6409 15.22087180  7851
SCORPION (RS89S)
1 67293U 25313AX  26049.17396784  .00004531  00000-0  20261-3 0  9994
2 67293  97.4048 125.8290 0012349  51.5281 308.7061 15.21746404  7858
GALAPAGOS-UTE-SWSU
1 67279U 25313AH  26049.14059972  .00007774  00000-0  35238-3 0  9992
2 67279  97.4039 125.7229 0015833  64.9548 295.3329 15.21007236  7848
SAKHACUBE-CHOLBON (RS18S)
1 67290U 25313AU  26049.16474538  .00010173  00000-0  44238-3 0  9993
2 67290  97.4046 125.8431 0010688  59.7675 300.4618 15.22406789  7858
LUCA-1 (RS90S)
1 67287U 25313AR  26049.16840109  .00009390  00000-0  41043-3 0  9990
2 67287  97.4047 125.8386 0011012  60.3190 299.9141 15.22252320  7859
QMR-KWT-2 (RS95S)
1 67291U 25313AV  26049.15899756  .00014371  00000-0  61607-3 0  9999
2 67291  97.4047 125.8508 0010297  59.2470 300.9780 15.22809097  7853
LOBACHEVSKY (RS83S)
1 67282U 25313AL  26049.18162354  .00005781  00000-0  25844-3 0  9997
2 67282  97.4038 125.8080 0012166  61.8065 298.4398 15.21639818  7851
NASBSAT-1
1 67289U 25313AT  26049.15983067  .00013471  00000-0  57874-3 0  9996
2 67289  97.4047 125.8506 0010655  60.2017 300.0278 15.22748109  7854
NASBSAT-2
1 67285U 25313AP  26049.17392248  .00007487  00000-0  33056-3 0  9995
2 67285  97.4028 125.8082 0011678  62.8277 297.4148 15.21971354  7854
HORS-5
1 67283U 25313AM  26049.17504181  .00009150  00000-0  40262-3 0  9990
2 67283  97.4049 125.8227 0011906  61.5390 298.7044 15.22019527  7857
AIST-2T 2
1 67253U 25313F   26049.13448124  .00038012  00000-0  40200-3 0  9998
2 67253  97.0965 126.7695 0009392 230.0260 130.0176 15.64027992  8059
AIST-2T 1
1 67254U 25313G   26049.16501144  .00049471  00000-0  52293-3 0  9990
2 67254  97.0967 126.7248 0003595  61.7892 298.3731 15.64036592  8045
AIST-ST (RS86S)
1 67267U 25313V   26049.13829792  .00010126  00000-0  45405-3 0  9995
2 67267  97.4055 125.7286 0015430  69.9403 290.3492 15.21301085  7849
KOWSAR 1.5
1 67264U 25313S   26049.14941859  .00007887  00000-0  36046-3 0  9993
2 67264  97.4136 125.7610 0016664  69.7663 290.5362 15.20703846  7841
PAYA
1 67255U 25313H   26049.16440970  .00002367  00000-0  16791-3 0  9996
2 67255  97.2964 123.6766 0087709  20.5993 339.8733 15.02593030  7757
GRIFON-1
1 67281U 25313AK  26049.19500005  .00005531  00000-0  25042-3 0  9999
2 67281  97.3992 125.7695 0013519  62.1852 298.0753 15.21206425  7855
GRIFON-2
1 67272U 25313AA  26049.13510671  .00011214  00000-0  50063-3 0  9999
2 67272  97.4053 125.7300 0015917  65.6114 294.6781 15.21419463  7840
GRIFON-3
1 67280U 25313AJ  26049.13235010  .00005489  00000-0  24915-3 0  9993
2 67280  97.4109 125.7690 0014809  62.7119 297.5623 15.21110965  7847
GRIFON-4
1 67261U 25313P   26049.19316333  .00016470  00000-0  72040-3 0  9990
2 67261  97.4086 125.8381 0015587  62.9012 297.3812 15.22031284  7852
MARAFON
1 67250U 25313C   26049.15601198  .00011037  00000-0  10128-2 0  9992
2 67250  97.6289 124.5553 0159017  10.9411 349.5197 14.85821228  7665
MORSAT (RS96S)
1 67262U 25313Q   26049.13971239  .00011098  00000-0  49758-3 0  9998
2 67262  97.4055 125.7236 0016234  65.5939 294.6989 15.21268983  7845
MARAFON-EXPERIMENTAL
1 67251U 25313D   26049.15855487  .00003987  00000-0  34824-3 0  9990
2 67251  97.5810 124.5201 0150423   3.0983 357.1131 14.88993690  7685
